start=new Date('2022-03-05T00:00:00.000Z').valueOf();
sats=[{"FILE":"3344357","BSTAR":"-0.00048740000000","APOAPSIS":"548.487","REF_FRAME":"TEME","MEAN_ELEMENT_THEORY":"SGP4","REV_AT_EPOCH":"9515","COUNTRY_CODE":"US","INCLINATION":"53.0545","MEAN_MOTION_DDOT":"0.0000000000000","SEMIMAJOR_AXIS":"6925.281","ARG_OF_PERICENTER":"47.3808","GP_ID":"197840837","MEAN_MOTION_DOT":"-0.00007539","ELEMENT_SET_NO":"999","RCS_SIZE":"LARGE","OBJECT_TYPE":"PAYLOAD","MEAN_MOTION":"15.06422167","TIME_SYSTEM":"UTC","TLE_LINE1":"1 45744U 20038Q   22063.14617729 -.00007539  00000-0 -48740-3 0  9999","PERIOD":"95.591","OBJECT_NAME":"STARLINK-1500","MEAN_ANOMALY":"312.7344","CENTER_NAME":"EARTH","OBJECT_ID":"2020-038Q","ECCENTRICITY":"0.00019370","EPOCH":"2022-03-04T03:30:29.717856","LAUNCH_DATE":"2020-06-13","SITE":"AFETR","CLASSIFICATION_TYPE":"U","PERIAPSIS":"545.804","TLE_LINE2":"2 45744  53.0545 340.1840 0001937  47.3808 312.7344 15.06422167 95156","RA_OF_ASC_NODE":"340.1840","NORAD_CAT_ID":"45744","DECAY_DATE":null,"EPHEMERIS_TYPE":"0"},{"ELEMENT_SET_NO":"999","MEAN_MOTION_DOT":"-0.00003215","GP_ID":"197901876","TIME_SYSTEM":"UTC","TLE_LINE1":"1 45745U 20038R   22063.73225106 -.00003215  00000-0 -19711-3 0  9992","OBJECT_TYPE":"PAYLOAD","MEAN_MOTION":"15.06384611","RCS_SIZE":"LARGE","REV_AT_EPOCH":"9523","MEAN_ELEMENT_THEORY":"SGP4","APOAPSIS":"548.703","REF_FRAME":"TEME","BSTAR":"-0.00019711000000","FILE":"3344863","ARG_OF_PERICENTER":"57.6053","SEMIMAJOR_AXIS":"6925.396","MEAN_MOTION_DDOT":"0.0000000000000","COUNTRY_CODE":"US","INCLINATION":"53.0539","NORAD_CAT_ID":"45745","RA_OF_ASC_NODE":"337.5684","TLE_LINE2":"2 45745  53.0539 337.5684 0002082  57.6053 302.5138 15.06384611 95232","EPHEMERIS_TYPE":"0","DECAY_DATE":null,"ECCENTRICITY":"0.00020820","MEAN_ANOMALY":"302.5138","OBJECT_ID":"2020-038R","OBJECT_NAME":"STARLINK-1503","CENTER_NAME":"EARTH","PERIOD":"95.593","PERIAPSIS":"545.819","CLASSIFICATION_TYPE":"U","SITE":"AFETR","LAUNCH_DATE":"2020-06-13","EPOCH":"2022-03-04T17:34:26.491584"},{"FILE":"3344863","BSTAR":"0.00040709000000","APOAPSIS":"548.351","MEAN_ELEMENT_THEORY":"SGP4","REF_FRAME":"TEME","REV_AT_EPOCH":"9523","COUNTRY_CODE":"US","INCLINATION":"53.0537","MEAN_MOTION_DDOT":"0.0000000000000","SEMIMAJOR_AXIS":"6925.333","ARG_OF_PERICENTER":"57.0696","GP_ID":"197902126","MEAN_MOTION_DOT":"0.00005788","ELEMENT_SET_NO":"999","RCS_SIZE":"LARGE","OBJECT_TYPE":"PAYLOAD","MEAN_MOTION":"15.06404927","TIME_SYSTEM":"UTC","TLE_LINE1":"1 45746U 20038S   22063.74699137  .00005788  00000-0  40709-3 0  9999","PERIOD":"95.592","OBJECT_ID":"2020-038S","MEAN_ANOMALY":"303.0453","OBJECT_NAME":"STARLINK-1504","CENTER_NAME":"EARTH","ECCENTRICITY":"0.00016640","EPOCH":"2022-03-04T17:55:40.054368","LAUNCH_DATE":"2020-06-13","SITE":"AFETR","CLASSIFICATION_TYPE":"U","PERIAPSIS":"546.046","TLE_LINE2":"2 45746  53.0537 337.4810 0001664  57.0696 303.0453 15.06404927 95232","RA_OF_ASC_NODE":"337.4810","NORAD_CAT_ID":"45746","DECAY_DATE":null,"EPHEMERIS_TYPE":"0"},{"TIME_SYSTEM":"UTC","TLE_LINE1":"1 45747U 20038T   22063.75067287  .00000915  00000-0  80319-4 0  9995","OBJECT_TYPE":"PAYLOAD","MEAN_MOTION":"15.06397884","RCS_SIZE":"LARGE","ELEMENT_SET_NO":"999","MEAN_MOTION_DOT":"0.00000915","GP_ID":"197903377","ARG_OF_PERICENTER":"56.3946","SEMIMAJOR_AXIS":"6925.355","MEAN_MOTION_DDOT":"0.0000000000000","COUNTRY_CODE":"US","INCLINATION":"53.0557","REV_AT_EPOCH":"9524","REF_FRAME":"TEME","APOAPSIS":"548.548","MEAN_ELEMENT_THEORY":"SGP4","BSTAR":"0.00008031900000","FILE":"3344863","EPHEMERIS_TYPE":"0","DECAY_DATE":null,"NORAD_CAT_ID":"45747","RA_OF_ASC_NODE":"337.4748","TLE_LINE2":"2 45747  53.0557 337.4748 0001918  56.3946 303.7225 15.06397884 95245","PERIAPSIS":"545.892","CLASSIFICATION_TYPE":"U","SITE":"AFETR","LAUNCH_DATE":"2020-06-13","EPOCH":"2022-03-04T18:00:58.135968","ECCENTRICITY":"0.00019180","OBJECT_ID":"2020-038T","MEAN_ANOMALY":"303.7225","OBJECT_NAME":"STARLINK-1506","CENTER_NAME":"EARTH","PERIOD":"95.592"},{"NORAD_CAT_ID":"45748","TLE_LINE2":"2 45748  53.0523 338.7262 0001540  64.7328 295.3821 15.06392888 95193","RA_OF_ASC_NODE":"338.7262","EPHEMERIS_TYPE":"0","DECAY_DATE":null,"MEAN_ANOMALY":"295.3821","OBJECT_NAME":"STARLINK-1507","OBJECT_ID":"2020-038U","CENTER_NAME":"EARTH","ECCENTRICITY":"0.00015400","PERIOD":"95.593","SITE":"AFETR","CLASSIFICATION_TYPE":"U","PERIAPSIS":"546.169","EPOCH":"2022-03-04T11:21:31.722912","LAUNCH_DATE":"2020-06-13","MEAN_MOTION_DOT":"0.00000161","ELEMENT_SET_NO":"999","GP_ID":"197841337","OBJECT_TYPE":"PAYLOAD","MEAN_MOTION":"15.06392888","TIME_SYSTEM":"UTC","TLE_LINE1":"1 45748U 20038U   22063.47328383  .00000161  00000-0  29709-4 0  9991","RCS_SIZE":"LARGE","REV_AT_EPOCH":"9519","FILE":"3344357","BSTAR":"0.00002970900000","APOAPSIS":"548.302","MEAN_ELEMENT_THEORY":"SGP4","REF_FRAME":"TEME","ARG_OF_PERICENTER":"64.7328","INCLINATION":"53.0523","COUNTRY_CODE":"US","MEAN_MOTION_DDOT":"0.0000000000000","SEMIMAJOR_AXIS":"6925.370"},{"PERIOD":"95.592","ECCENTRICITY":"0.00017330","CENTER_NAME":"EARTH","MEAN_ANOMALY":"295.3757","OBJECT_ID":"2020-038W","OBJECT_NAME":"STARLINK-1391","LAUNCH_DATE":"2020-06-13","EPOCH":"2022-03-04T16:49:18.967008","PERIAPSIS":"546.030","CLASSIFICATION_TYPE":"U","SITE":"AFETR","RA_OF_ASC_NODE":"317.7033","TLE_LINE2":"2 45750  53.0550 317.7033 0001733  64.7412 295.3757 15.06394618 95525","NORAD_CAT_ID":"45750","DECAY_DATE":null,"EPHEMERIS_TYPE":"0","MEAN_ELEMENT_THEORY":"SGP4","APOAPSIS":"548.430","REF_FRAME":"TEME","BSTAR":"-0.00000871420000","FILE":"3344863","REV_AT_EPOCH":"9552","SEMIMAJOR_AXIS":"6925.365","MEAN_MOTION_DDOT":"0.0000000000000","INCLINATION":"53.0550","COUNTRY_CODE":"US","ARG_OF_PERICENTER":"64.7412","GP_ID":"197902376","ELEMENT_SET_NO":"999","MEAN_MOTION_DOT":"-0.00000411","RCS_SIZE":"LARGE","TLE_LINE1":"1 45750U 20038W   22063.70091397 -.00000411  00000-0 -87142-5 0  9998","TIME_SYSTEM":"UTC","OBJECT_TYPE":"PAYLOAD","MEAN_MOTION":"15.06394618"},{"ARG_OF_PERICENTER":"57.2147","SEMIMAJOR_AXIS":"6925.343","INCLINATION":"53.0553","COUNTRY_CODE":"US","MEAN_MOTION_DDOT":"0.0000000000000","REV_AT_EPOCH":"9555","BSTAR":"0.00016512000000","APOAPSIS":"548.509","MEAN_ELEMENT_THEORY":"SGP4","REF_FRAME":"TEME","FILE":"3344863","TIME_SYSTEM":"UTC","TLE_LINE1":"1 45751U 20038X   22063.89626957  .00002179  00000-0  16512-3 0  9997","MEAN_MOTION":"15.06401955","OBJECT_TYPE":"PAYLOAD","RCS_SIZE":"LARGE","ELEMENT_SET_NO":"999","MEAN_MOTION_DOT":"0.00002179","GP_ID":"197902626","PERIAPSIS":"545.906","SITE":"AFETR","CLASSIFICATION_TYPE":"U","LAUNCH_DATE":"2020-06-13","EPOCH":"2022-03-04T21:30:37.690848","OBJECT_NAME":"STARLINK-1464","MEAN_ANOMALY":"302.9023","OBJECT_ID":"2020-038X","CENTER_NAME":"EARTH","ECCENTRICITY":"0.00018790","PERIOD":"95.592","EPHEMERIS_TYPE":"0","DECAY_DATE":null,"NORAD_CAT_ID":"45751","RA_OF_ASC_NODE":"316.8211","TLE_LINE2":"2 45751  53.0553 316.8211 0001879  57.2147 302.9023 15.06401955 95557"},{"TLE_LINE1":"1 45752U 20038Y   22063.71407812  .00019175  00000-0  12067-3 0  9991","TIME_SYSTEM":"UTC","MEAN_MOTION":"15.76766455","OBJECT_TYPE":"PAYLOAD","RCS_SIZE":"LARGE","ELEMENT_SET_NO":"999","MEAN_MOTION_DOT":"0.00019175","GP_ID":"197902878","ARG_OF_PERICENTER":"7.1362","SEMIMAJOR_AXIS":"6717.746","MEAN_MOTION_DDOT":"0.0000000000000","INCLINATION":"53.0026","COUNTRY_CODE":"US","REV_AT_EPOCH":"9911","REF_FRAME":"TEME","APOAPSIS":"341.370","MEAN_ELEMENT_THEORY":"SGP4","BSTAR":"0.00012067000000","FILE":"3344863","EPHEMERIS_TYPE":"0","DECAY_DATE":null,"NORAD_CAT_ID":"45752","RA_OF_ASC_NODE":"58.4475","TLE_LINE2":"2 45752  53.0026  58.4475 0002618   7.1362 352.9693 15.76766455 99119","PERIAPSIS":"337.853","CLASSIFICATION_TYPE":"U","SITE":"AFETR","LAUNCH_DATE":"2020-06-13","EPOCH":"2022-03-04T17:08:16.349568","ECCENTRICITY":"0.00026180","OBJECT_ID":"2020-038Y","MEAN_ANOMALY":"352.9693","CENTER_NAME":"EARTH","OBJECT_NAME":"STARLINK-1469","PERIOD":"91.326"},{"INCLINATION":"53.0559","COUNTRY_CODE":"US","MEAN_MOTION_DDOT":"0.0000000000000","SEMIMAJOR_AXIS":"6925.352","ARG_OF_PERICENTER":"52.4416","FILE":"3344863","BSTAR":"-0.00000336760000","REF_FRAME":"TEME","APOAPSIS":"548.455","MEAN_ELEMENT_THEORY":"SGP4","REV_AT_EPOCH":"9555","RCS_SIZE":"LARGE","MEAN_MOTION":"15.06398859","OBJECT_TYPE":"PAYLOAD","TLE_LINE1":"1 45753U 20038Z   22063.90732392 -.00000332  00000-0 -33676-5 0  9995","TIME_SYSTEM":"UTC","GP_ID":"197903121","MEAN_MOTION_DOT":"-0.00000332","ELEMENT_SET_NO":"999","EPOCH":"2022-03-04T21:46:32.786688","LAUNCH_DATE":"2020-06-13","SITE":"AFETR","CLASSIFICATION_TYPE":"U","PERIAPSIS":"545.979","PERIOD":"95.592","MEAN_ANOMALY":"307.6735","OBJECT_NAME":"STARLINK-1476","OBJECT_ID":"2020-038Z","CENTER_NAME":"EARTH","ECCENTRICITY":"0.00017880","DECAY_DATE":null,"EPHEMERIS_TYPE":"0","TLE_LINE2":"2 45753  53.0559 316.7815 0001788  52.4416 307.6735 15.06398859 95559","RA_OF_ASC_NODE":"316.7815","NORAD_CAT_ID":"45753"},{"PERIOD":"95.592","MEAN_ANOMALY":"298.4595","OBJECT_NAME":"STARLINK-1477","CENTER_NAME":"EARTH","OBJECT_ID":"2020-038AA","ECCENTRICITY":"0.00018040","LAUNCH_DATE":"2020-06-13","EPOCH":"2022-03-04T21:51:50.812992","PERIAPSIS":"545.961","SITE":"AFETR","CLASSIFICATION_TYPE":"U","RA_OF_ASC_NODE":"316.7565","TLE_LINE2":"2 45754  53.0550 316.7565 0001804  61.6576 298.4595 15.06400911 95555","NORAD_CAT_ID":"45754","DECAY_DATE":null,"EPHEMERIS_TYPE":"0","BSTAR":"0.00016757000000","REF_FRAME":"TEME","APOAPSIS":"548.460","MEAN_ELEMENT_THEORY":"SGP4","FILE":"3344863","REV_AT_EPOCH":"9555","SEMIMAJOR_AXIS":"6925.346","INCLINATION":"53.0550","COUNTRY_CODE":"US","MEAN_MOTION_DDOT":"0.0000000000000","ARG_OF_PERICENTER":"61.6576","GP_ID":"197901877","ELEMENT_SET_NO":"999","MEAN_MOTION_DOT":"0.00002215","RCS_SIZE":"LARGE","TLE_LINE1":"1 45754U 20038AA  22063.91100478  .00002215  00000-0  16757-3 0  9990","TIME_SYSTEM":"UTC","OBJECT_TYPE":"PAYLOAD","MEAN_MOTION":"15.06400911"}];
